STARLINK-36982
1 68278U 26055S   26106.81512020  .00245225  00000+0  12065-2 0  9998
2 68278  53.1568 146.0848 0002032  72.0810 288.0434 15.80954116  5719
STARLINK-36934
1 68279U 26055T   26106.81586963  .00269540  00000+0  13214-2 0  9999
2 68279  53.1574 146.0902 0001771  63.6384 296.4820 15.80964595  5713
STARLINK-37070
1 68280U 26055U   26106.56073869  .00239945  00000+0  11807-2 0  9991
2 68280  53.1573 147.3418 0000915  77.2207 282.8918 15.80965349  5674
STARLINK-37134
1 68281U 26055V   26106.81211885  .00191242  00000+0  94883-3 0  9995
2 68281  53.1570 146.0633 0001538  74.9566 285.1627 15.80926136  5710
STARLINK-37160
1 68282U 26055W   26106.37032916  .00188800  00000+0  93613-3 0  9999
2 68282  53.1576 148.2881 0000934 121.3598 238.7517 15.80947001  5645
STARLINK-37124
1 68283U 26055X   26106.81136832  .00249090  00000+0  12247-2 0  9993
2 68283  53.1569 146.0597 0001585  67.6888 292.4303 15.80958510  5710
STARLINK-37159
1 68284U 26055Y   26105.60954281 -.00066156  00000+0 -34089-3 0  9997
2 68284  53.1579 152.0753 0002607  72.7436 287.3872 15.80438005  5520
STARLINK-36725
1 68285U 26055Z   26106.80986859  .00235210  00000+0  11582-2 0  9996
2 68285  53.1571 146.0478 0001594  64.4853 295.6334 15.80963016  5716
STARLINK-36998
1 68286U 26055AA  26106.80836850  .00276224  00000+0  13528-2 0  9994
2 68286  53.1571 146.0402 0001990  56.5452 303.5761 15.80967863  5718
STARLINK-37165
1 68287U 26055AB  26106.80762553  .00227578  00000+0  11234-2 0  9993
2 68287  53.1576 146.0333 0003233  75.4735 284.6646 15.80929181  5715
STARLINK-37016
1 68288U 26055AC  26106.80911481  .00209119  00000+0  10345-2 0  9993
2 68288  53.1574 146.0457 0000655  82.6899 277.4199 15.80938220  5714
STARLINK-37010
1 68289U 26055AD  26106.80686671  .00191624  00000+0  95262-3 0  9997
2 68289  53.1574 146.0288 0001824  96.3293 263.7937 15.80881331  5714
STARLINK-37151
1 68290U 26055AE  26106.80611782  .00189679  00000+0  94076-3 0  9999
2 68290  53.1570 146.0222 0002104  50.0040 310.1167 15.80937304  5713
STRIX-6
1 68291U 26056A   26105.23702737  .00001471  00000+0  13870-3 0  9994
2 68291  50.2828 287.2716 0016370   2.5777 357.5254 14.99764595  3824
STARLINK-37107
1 68294U 26057A   26106.62058738  .00225541  00000+0  14691-2 0  9994
2 68294  97.2847 230.9153 0000885   7.1606 352.9671 15.75258292  4252
ELECTRON KICK STAGE R/B
1 68293U 26056C   26106.82937749  .00055665  00000+0  83024-3 0  9997
2 68293  50.2897 271.4159 0147150 121.4069 240.1386 15.42939794  4181
