[{"OBJECT_NAME":"STARLINK-36982","OBJECT_ID":"2026-055S","EPOCH":"2026-04-16T19:33:46.385280","MEAN_MOTION":15.80954116,"ECCENTRICITY":0.0002032,"INCLINATION":53.1568,"RA_OF_ASC_NODE":146.0848,"ARG_OF_PERICENTER":72.081,"MEAN_ANOMALY":288.0434,"EPHEMERIS_TYPE":0,"CLASSIFICATION_TYPE":"U","NORAD_CAT_ID":68278,"ELEMENT_SET_NO":999,"REV_AT_EPOCH":571,"BSTAR":0.0012064812,"MEAN_MOTION_DOT":0.00245225,"MEAN_MOTION_DDOT":0},{"OBJECT_NAME":"STARLINK-36934","OBJECT_ID":"2026-055T","EPOCH":"2026-04-16T19:34:51.136032","MEAN_MOTION":15.80964595,"ECCENTRICITY":0.00017716,"INCLINATION":53.1574,"RA_OF_ASC_NODE":146.0902,"ARG_OF_PERICENTER":63.6384,"MEAN_ANOMALY":296.482,"EPHEMERIS_TYPE":0,"CLASSIFICATION_TYPE":"U","NORAD_CAT_ID":68279,"ELEMENT_SET_NO":999,"REV_AT_EPOCH":571,"BSTAR":0.0013213857,"MEAN_MOTION_DOT":0.0026954,"MEAN_MOTION_DDOT":0},{"OBJECT_NAME":"STARLINK-37070","OBJECT_ID":"2026-055U","EPOCH":"2026-04-16T13:27:27.822816","MEAN_MOTION":15.80965349,"ECCENTRICITY":9.155e-5,"INCLINATION":53.1573,"RA_OF_ASC_NODE":147.3418,"ARG_OF_PERICENTER":77.2207,"MEAN_ANOMALY":282.8918,"EPHEMERIS_TYPE":0,"CLASSIFICATION_TYPE":"U","NORAD_CAT_ID":68280,"ELEMENT_SET_NO":999,"REV_AT_EPOCH":567,"BSTAR":0.0011807069,"MEAN_MOTION_DOT":0.00239945,"MEAN_MOTION_DDOT":0},{"OBJECT_NAME":"STARLINK-37134","OBJECT_ID":"2026-055V","EPOCH":"2026-04-16T19:29:27.068640","MEAN_MOTION":15.80926136,"ECCENTRICITY":0.00015384,"INCLINATION":53.157,"RA_OF_ASC_NODE":146.0633,"ARG_OF_PERICENTER":74.9566,"MEAN_ANOMALY":285.1627,"EPHEMERIS_TYPE":0,"CLASSIFICATION_TYPE":"U","NORAD_CAT_ID":68281,"ELEMENT_SET_NO":999,"REV_AT_EPOCH":571,"BSTAR":0.0009488252,"MEAN_MOTION_DOT":0.00191242,"MEAN_MOTION_DDOT":0},{"OBJECT_NAME":"STARLINK-37160","OBJECT_ID":"2026-055W","EPOCH":"2026-04-16T08:53:16.439424","MEAN_MOTION":15.80947001,"ECCENTRICITY":9.344e-5,"INCLINATION":53.1576,"RA_OF_ASC_NODE":148.2881,"ARG_OF_PERICENTER":121.3598,"MEAN_ANOMALY":238.7517,"EPHEMERIS_TYPE":0,"CLASSIFICATION_TYPE":"U","NORAD_CAT_ID":68282,"ELEMENT_SET_NO":999,"REV_AT_EPOCH":564,"BSTAR":0.00093612805,"MEAN_MOTION_DOT":0.001888,"MEAN_MOTION_DDOT":0},{"OBJECT_NAME":"STARLINK-37124","OBJECT_ID":"2026-055X","EPOCH":"2026-04-16T19:28:22.222848","MEAN_MOTION":15.8095851,"ECCENTRICITY":0.00015853,"INCLINATION":53.1569,"RA_OF_ASC_NODE":146.0597,"ARG_OF_PERICENTER":67.6888,"MEAN_ANOMALY":292.4303,"EPHEMERIS_TYPE":0,"CLASSIFICATION_TYPE":"U","NORAD_CAT_ID":68283,"ELEMENT_SET_NO":999,"REV_AT_EPOCH":571,"BSTAR":0.0012246564,"MEAN_MOTION_DOT":0.0024909,"MEAN_MOTION_DDOT":0},{"OBJECT_NAME":"STARLINK-37159","OBJECT_ID":"2026-055Y","EPOCH":"2026-04-15T14:37:44.498784","MEAN_MOTION":15.80438005,"ECCENTRICITY":0.0002607,"INCLINATION":53.1579,"RA_OF_ASC_NODE":152.0753,"ARG_OF_PERICENTER":72.7436,"MEAN_ANOMALY":287.3872,"EPHEMERIS_TYPE":0,"CLASSIFICATION_TYPE":"U","NORAD_CAT_ID":68284,"ELEMENT_SET_NO":999,"REV_AT_EPOCH":552,"BSTAR":-0.00034089,"MEAN_MOTION_DOT":-0.00066156,"MEAN_MOTION_DDOT":0},{"OBJECT_NAME":"STARLINK-36725","OBJECT_ID":"2026-055Z","EPOCH":"2026-04-16T19:26:12.646176","MEAN_MOTION":15.80963016,"ECCENTRICITY":0.00015943,"INCLINATION":53.1571,"RA_OF_ASC_NODE":146.0478,"ARG_OF_PERICENTER":64.4853,"MEAN_ANOMALY":295.6334,"EPHEMERIS_TYPE":0,"CLASSIFICATION_TYPE":"U","NORAD_CAT_ID":68285,"ELEMENT_SET_NO":999,"REV_AT_EPOCH":571,"BSTAR":0.0011582421,"MEAN_MOTION_DOT":0.0023521,"MEAN_MOTION_DDOT":0},{"OBJECT_NAME":"STARLINK-36998","OBJECT_ID":"2026-055AA","EPOCH":"2026-04-16T19:24:03.038400","MEAN_MOTION":15.80967863,"ECCENTRICITY":0.000199,"INCLINATION":53.1571,"RA_OF_ASC_NODE":146.0402,"ARG_OF_PERICENTER":56.5452,"MEAN_ANOMALY":303.5761,"EPHEMERIS_TYPE":0,"CLASSIFICATION_TYPE":"U","NORAD_CAT_ID":68286,"ELEMENT_SET_NO":999,"REV_AT_EPOCH":571,"BSTAR":0.0013528008,"MEAN_MOTION_DOT":0.00276224,"MEAN_MOTION_DDOT":0},{"OBJECT_NAME":"STARLINK-37165","OBJECT_ID":"2026-055AB","EPOCH":"2026-04-16T19:22:58.845792","MEAN_MOTION":15.80929181,"ECCENTRICITY":0.00032333,"INCLINATION":53.1576,"RA_OF_ASC_NODE":146.0333,"ARG_OF_PERICENTER":75.4735,"MEAN_ANOMALY":284.6646,"EPHEMERIS_TYPE":0,"CLASSIFICATION_TYPE":"U","NORAD_CAT_ID":68287,"ELEMENT_SET_NO":999,"REV_AT_EPOCH":571,"BSTAR":0.0011233644,"MEAN_MOTION_DOT":0.00227578,"MEAN_MOTION_DDOT":0},{"OBJECT_NAME":"STARLINK-37016","OBJECT_ID":"2026-055AC","EPOCH":"2026-04-16T19:25:07.519584","MEAN_MOTION":15.8093822,"ECCENTRICITY":6.554e-5,"INCLINATION":53.1574,"RA_OF_ASC_NODE":146.0457,"ARG_OF_PERICENTER":82.6899,"MEAN_ANOMALY":277.4199,"EPHEMERIS_TYPE":0,"CLASSIFICATION_TYPE":"U","NORAD_CAT_ID":68288,"ELEMENT_SET_NO":999,"REV_AT_EPOCH":571,"BSTAR":0.001034459,"MEAN_MOTION_DOT":0.00209119,"MEAN_MOTION_DDOT":0},{"OBJECT_NAME":"STARLINK-37010","OBJECT_ID":"2026-055AD","EPOCH":"2026-04-16T19:21:53.283744","MEAN_MOTION":15.80881331,"ECCENTRICITY":0.00018249,"INCLINATION":53.1574,"RA_OF_ASC_NODE":146.0288,"ARG_OF_PERICENTER":96.3293,"MEAN_ANOMALY":263.7937,"EPHEMERIS_TYPE":0,"CLASSIFICATION_TYPE":"U","NORAD_CAT_ID":68289,"ELEMENT_SET_NO":999,"REV_AT_EPOCH":571,"BSTAR":0.00095262198,"MEAN_MOTION_DOT":0.00191624,"MEAN_MOTION_DDOT":0},{"OBJECT_NAME":"STARLINK-37151","OBJECT_ID":"2026-055AE","EPOCH":"2026-04-16T19:20:48.579648","MEAN_MOTION":15.80937304,"ECCENTRICITY":0.00021047,"INCLINATION":53.157,"RA_OF_ASC_NODE":146.0222,"ARG_OF_PERICENTER":50.004,"MEAN_ANOMALY":310.1167,"EPHEMERIS_TYPE":0,"CLASSIFICATION_TYPE":"U","NORAD_CAT_ID":68290,"ELEMENT_SET_NO":999,"REV_AT_EPOCH":571,"BSTAR":0.00094076002,"MEAN_MOTION_DOT":0.00189679,"MEAN_MOTION_DDOT":0},{"OBJECT_NAME":"STRIX-6","OBJECT_ID":"2026-056A","EPOCH":"2026-04-15T05:41:19.164768","MEAN_MOTION":14.99764595,"ECCENTRICITY":0.001637,"INCLINATION":50.2828,"RA_OF_ASC_NODE":287.2716,"ARG_OF_PERICENTER":2.5777,"MEAN_ANOMALY":357.5254,"EPHEMERIS_TYPE":0,"CLASSIFICATION_TYPE":"U","NORAD_CAT_ID":68291,"ELEMENT_SET_NO":999,"REV_AT_EPOCH":382,"BSTAR":0.0001387,"MEAN_MOTION_DOT":1.471e-5,"MEAN_MOTION_DDOT":0},{"OBJECT_NAME":"ELECTRON KICK STAGE R/B","OBJECT_ID":"2026-056C","EPOCH":"2026-04-16T19:54:18.215136","MEAN_MOTION":15.42939794,"ECCENTRICITY":0.01471501,"INCLINATION":50.2897,"RA_OF_ASC_NODE":271.4159,"ARG_OF_PERICENTER":121.4069,"MEAN_ANOMALY":240.1386,"EPHEMERIS_TYPE":0,"CLASSIFICATION_TYPE":"U","NORAD_CAT_ID":68293,"ELEMENT_SET_NO":999,"REV_AT_EPOCH":418,"BSTAR":0.00083024073,"MEAN_MOTION_DOT":0.00055665,"MEAN_MOTION_DDOT":0},{"OBJECT_NAME":"STARLINK-37107","OBJECT_ID":"2026-057A","EPOCH":"2026-04-16T14:53:38.749632","MEAN_MOTION":15.75258292,"ECCENTRICITY":8.859e-5,"INCLINATION":97.2847,"RA_OF_ASC_NODE":230.9153,"ARG_OF_PERICENTER":7.1606,"MEAN_ANOMALY":352.9671,"EPHEMERIS_TYPE":0,"CLASSIFICATION_TYPE":"U","NORAD_CAT_ID":68294,"ELEMENT_SET_NO":999,"REV_AT_EPOCH":425,"BSTAR":0.001469058,"MEAN_MOTION_DOT":0.00225541,"MEAN_MOTION_DDOT":0}]
